HULIANWANG JISHU SHIYAN*
1 57288U 23095A   26199.85288594  .00000025  00000+0  18249-4 0  9999
2 57288  86.5047 353.8125 0019538 102.0292 258.3041 13.39544434147994
HULIANWANG JISHU SHIYAN*
1 57289U 23095B   26199.84435779  .00000028  00000+0  22303-4 0  9997
2 57289  86.5049 353.8249 0018124 100.1659 260.1529 13.39553059147995
HULIANWANG JISHU SHIYAN*
1 58691U 23212A   26199.81435279 -.00000116  00000+0  21948-4 0  9991
2 58691  49.9985 227.8702 0001232 232.7773 127.2992 13.41459217125492
HULIANWANG JISHU SHIYAN*
1 58692U 23212B   26199.73313940 -.00000118  00000+0  18020-4 0  9992
2 58692  49.9953 228.5244 0001379 221.6520 138.4253 13.41460331125488
HULIANWANG JISHU SHIYAN*
1 58693U 23212C   26199.58738286 -.00000102  00000+0  46804-4 0  9994
2 58693  49.9967 229.1858 0001224 210.1215 149.9592 13.41462240125478
HULIANWANG DIGUI-01     
1 62323U 24240A   26199.80412600  .00000025  00000+0  25140-4 0  9998
2 62323  86.5024 332.5718 0002001 104.8831 255.2525 13.24411641 76826
HULIANWANG DIGUI-02     
1 62324U 24240B   26199.81158653  .00000010  00000+0 -10507-4 0  9991
2 62324  86.5047 332.7376 0001905 105.4809 254.6535 13.24411524 76833
HULIANWANG DIGUI-03     
1 62325U 24240C   26199.79655514  .00000039  00000+0  55957-4 0  9995
2 62325  86.5006 332.4711 0002031 103.2297 256.9064 13.24410212 76821
HULIANWANG DIGUI-04     
1 62326U 24240D   26199.78901720  .00000050  00000+0  82928-4 0  9999
2 62326  86.5016 332.5174 0002154 102.7481 257.3894 13.24410474 76828
HULIANWANG DIGUI-05     
1 62327U 24240E   26199.85701111  .00000053  00000+0  90055-4 0  9993
2 62327  86.5068 332.7821 0002196 100.1842 259.9540 13.24411119 76830
HULIANWANG DIGUI-06     
1 62328U 24240F   26199.84190832  .00000044  00000+0  68087-4 0  9995
2 62328  86.5005 332.4246 0002158 106.9295 253.2075 13.24408611 76837
HULIANWANG DIGUI-07     
1 62329U 24240G   26199.83433252  .00000029  00000+0  33576-4 0  9999
2 62329  86.4975 332.2568 0002061 104.9265 255.2098 13.24411056 76830
HULIANWANG DIGUI-08     
1 62330U 24240H   26199.84945325  .00000049  00000+0  80775-4 0  9996
2 62330  86.5059 332.7309 0002260 100.1765 259.9624 13.24411391 76836
HULIANWANG DIGUI-09     
1 62331U 24240J   26199.82678336  .00000017  00000+0  60792-5 0  9993
2 62331  86.5025 332.5892 0002012 103.6628 256.4730 13.24410031 76825
HULIANWANG DIGUI-10     
1 62332U 24240K   26199.81923090  .00000016  00000+0  32353-5 0  9994
2 62332  86.5055 332.7539 0002107 105.7599 254.3767 13.24410860 76821
HULIANWANG DIGUI-11     
1 62971U 25030A   26199.81079248 -.00000099  00000+0  53412-4 0  9998
2 62971  50.0003 122.3953 0000933 284.2055  75.8714 13.29324601 70067
