{"fetched_at":"2026-07-19T07:05:14.667Z","source":"https://celestrak.org/NORAD/elements/gp.php?NAME=HULIANWANG&FORMAT=JSON","constellation":"guowang","records":[{"OBJECT_NAME":"HULIANWANG JISHU SHIYAN A","OBJECT_ID":"2023-095A","EPOCH":"2026-07-18T20:28:09.345216","CLASSIFICATION_TYPE":"U","MEAN_MOTION":13.39544434,"ECCENTRICITY":0.0019538,"INCLINATION":86.5047,"RA_OF_ASC_NODE":353.8125,"ARG_OF_PERICENTER":102.0292,"MEAN_ANOMALY":258.3041,"EPHEMERIS_TYPE":0,"NORAD_CAT_ID":57288,"ELEMENT_SET_NO":999,"REV_AT_EPOCH":14799,"BSTAR":0.000018249,"MEAN_MOTION_DOT":2.5e-7,"MEAN_MOTION_DDOT":0},{"OBJECT_NAME":"HULIANWANG JISHU SHIYAN B","OBJECT_ID":"2023-095B","EPOCH":"2026-07-18T20:15:52.513056","CLASSIFICATION_TYPE":"U","MEAN_MOTION":13.39553059,"ECCENTRICITY":0.0018124,"INCLINATION":86.5049,"RA_OF_ASC_NODE":353.8249,"ARG_OF_PERICENTER":100.1659,"MEAN_ANOMALY":260.1529,"EPHEMERIS_TYPE":0,"NORAD_CAT_ID":57289,"ELEMENT_SET_NO":999,"REV_AT_EPOCH":14799,"BSTAR":0.000022303,"MEAN_MOTION_DOT":2.8e-7,"MEAN_MOTION_DDOT":0},{"OBJECT_NAME":"HULIANWANG JISHU SHIYAN 4A","OBJECT_ID":"2023-212A","EPOCH":"2026-07-18T19:32:40.081056","CLASSIFICATION_TYPE":"U","MEAN_MOTION":13.41459217,"ECCENTRICITY":0.0001232,"INCLINATION":49.9985,"RA_OF_ASC_NODE":227.8702,"ARG_OF_PERICENTER":232.7773,"MEAN_ANOMALY":127.2992,"EPHEMERIS_TYPE":0,"NORAD_CAT_ID":58691,"ELEMENT_SET_NO":999,"REV_AT_EPOCH":12549,"BSTAR":0.000021948,"MEAN_MOTION_DOT":-0.00000116,"MEAN_MOTION_DDOT":0},{"OBJECT_NAME":"HULIANWANG JISHU SHIYAN 4B","OBJECT_ID":"2023-212B","EPOCH":"2026-07-18T17:35:43.244160","CLASSIFICATION_TYPE":"U","MEAN_MOTION":13.41460331,"ECCENTRICITY":0.0001379,"INCLINATION":49.9953,"RA_OF_ASC_NODE":228.5244,"ARG_OF_PERICENTER":221.652,"MEAN_ANOMALY":138.4253,"EPHEMERIS_TYPE":0,"NORAD_CAT_ID":58692,"ELEMENT_SET_NO":999,"REV_AT_EPOCH":12548,"BSTAR":0.00001802,"MEAN_MOTION_DOT":-0.00000118,"MEAN_MOTION_DDOT":0},{"OBJECT_NAME":"HULIANWANG JISHU SHIYAN 4C","OBJECT_ID":"2023-212C","EPOCH":"2026-07-18T14:05:49.879104","CLASSIFICATION_TYPE":"U","MEAN_MOTION":13.4146224,"ECCENTRICITY":0.0001224,"INCLINATION":49.9967,"RA_OF_ASC_NODE":229.1858,"ARG_OF_PERICENTER":210.1215,"MEAN_ANOMALY":149.9592,"EPHEMERIS_TYPE":0,"NORAD_CAT_ID":58693,"ELEMENT_SET_NO":999,"REV_AT_EPOCH":12547,"BSTAR":0.000046804,"MEAN_MOTION_DOT":-0.00000102,"MEAN_MOTION_DDOT":0},{"OBJECT_NAME":"HULIANWANG DIGUI-01","OBJECT_ID":"2024-240A","EPOCH":"2026-07-18T19:17:56.486400","CLASSIFICATION_TYPE":"U","MEAN_MOTION":13.24411641,"ECCENTRICITY":0.0002001,"INCLINATION":86.5024,"RA_OF_ASC_NODE":332.5718,"ARG_OF_PERICENTER":104.8831,"MEAN_ANOMALY":255.2525,"EPHEMERIS_TYPE":0,"NORAD_CAT_ID":62323,"ELEMENT_SET_NO":999,"REV_AT_EPOCH":7682,"BSTAR":0.00002514,"MEAN_MOTION_DOT":2.5e-7,"MEAN_MOTION_DDOT":0},{"OBJECT_NAME":"HULIANWANG DIGUI-02","OBJECT_ID":"2024-240B","EPOCH":"2026-07-18T19:28:41.076192","CLASSIFICATION_TYPE":"U","MEAN_MOTION":13.24411524,"ECCENTRICITY":0.0001905,"INCLINATION":86.5047,"RA_OF_ASC_NODE":332.7376,"ARG_OF_PERICENTER":105.4809,"MEAN_ANOMALY":254.6535,"EPHEMERIS_TYPE":0,"NORAD_CAT_ID":62324,"ELEMENT_SET_NO":999,"REV_AT_EPOCH":7683,"BSTAR":-0.000010507,"MEAN_MOTION_DOT":1e-7,"MEAN_MOTION_DDOT":0},{"OBJECT_NAME":"HULIANWANG DIGUI-03","OBJECT_ID":"2024-240C","EPOCH":"2026-07-18T19:07:02.364096","CLASSIFICATION_TYPE":"U","MEAN_MOTION":13.24410212,"ECCENTRICITY":0.0002031,"INCLINATION":86.5006,"RA_OF_ASC_NODE":332.4711,"ARG_OF_PERICENTER":103.2297,"MEAN_ANOMALY":256.9064,"EPHEMERIS_TYPE":0,"NORAD_CAT_ID":62325,"ELEMENT_SET_NO":999,"REV_AT_EPOCH":7682,"BSTAR":0.000055957,"MEAN_MOTION_DOT":3.9e-7,"MEAN_MOTION_DDOT":0},{"OBJECT_NAME":"HULIANWANG DIGUI-04","OBJECT_ID":"2024-240D","EPOCH":"2026-07-18T18:56:11.086080","CLASSIFICATION_TYPE":"U","MEAN_MOTION":13.24410474,"ECCENTRICITY":0.0002154,"INCLINATION":86.5016,"RA_OF_ASC_NODE":332.5174,"ARG_OF_PERICENTER":102.7481,"MEAN_ANOMALY":257.3894,"EPHEMERIS_TYPE":0,"NORAD_CAT_ID":62326,"ELEMENT_SET_NO":999,"REV_AT_EPOCH":7682,"BSTAR":0.000082928,"MEAN_MOTION_DOT":5e-7,"MEAN_MOTION_DDOT":0},{"OBJECT_NAME":"HULIANWANG DIGUI-05","OBJECT_ID":"2024-240E","EPOCH":"2026-07-18T20:34:05.759904","CLASSIFICATION_TYPE":"U","MEAN_MOTION":13.24411119,"ECCENTRICITY":0.0002196,"INCLINATION":86.5068,"RA_OF_ASC_NODE":332.7821,"ARG_OF_PERICENTER":100.1842,"MEAN_ANOMALY":259.954,"EPHEMERIS_TYPE":0,"NORAD_CAT_ID":62327,"ELEMENT_SET_NO":999,"REV_AT_EPOCH":7683,"BSTAR":0.000090055,"MEAN_MOTION_DOT":5.3e-7,"MEAN_MOTION_DDOT":0},{"OBJECT_NAME":"HULIANWANG DIGUI-06","OBJECT_ID":"2024-240F","EPOCH":"2026-07-18T20:12:20.878848","CLASSIFICATION_TYPE":"U","MEAN_MOTION":13.24408611,"ECCENTRICITY":0.0002158,"INCLINATION":86.5005,"RA_OF_ASC_NODE":332.4246,"ARG_OF_PERICENTER":106.9295,"MEAN_ANOMALY":253.2075,"EPHEMERIS_TYPE":0,"NORAD_CAT_ID":62328,"ELEMENT_SET_NO":999,"REV_AT_EPOCH":7683,"BSTAR":0.000068087,"MEAN_MOTION_DOT":4.4e-7,"MEAN_MOTION_DDOT":0},{"OBJECT_NAME":"HULIANWANG DIGUI-07","OBJECT_ID":"2024-240G","EPOCH":"2026-07-18T20:01:26.329728","CLASSIFICATION_TYPE":"U","MEAN_MOTION":13.24411056,"ECCENTRICITY":0.0002061,"INCLINATION":86.4975,"RA_OF_ASC_NODE":332.2568,"ARG_OF_PERICENTER":104.9265,"MEAN_ANOMALY":255.2098,"EPHEMERIS_TYPE":0,"NORAD_CAT_ID":62329,"ELEMENT_SET_NO":999,"REV_AT_EPOCH":7683,"BSTAR":0.000033576,"MEAN_MOTION_DOT":2.9e-7,"MEAN_MOTION_DDOT":0},{"OBJECT_NAME":"HULIANWANG DIGUI-08","OBJECT_ID":"2024-240H","EPOCH":"2026-07-18T20:23:12.760800","CLASSIFICATION_TYPE":"U","MEAN_MOTION":13.24411391,"ECCENTRICITY":0.000226,"INCLINATION":86.5059,"RA_OF_ASC_NODE":332.7309,"ARG_OF_PERICENTER":100.1765,"MEAN_ANOMALY":259.9624,"EPHEMERIS_TYPE":0,"NORAD_CAT_ID":62330,"ELEMENT_SET_NO":999,"REV_AT_EPOCH":7683,"BSTAR":0.000080775,"MEAN_MOTION_DOT":4.9e-7,"MEAN_MOTION_DDOT":0},{"OBJECT_NAME":"HULIANWANG DIGUI-09","OBJECT_ID":"2024-240J","EPOCH":"2026-07-18T19:50:34.082304","CLASSIFICATION_TYPE":"U","MEAN_MOTION":13.24410031,"ECCENTRICITY":0.0002012,"INCLINATION":86.5025,"RA_OF_ASC_NODE":332.5892,"ARG_OF_PERICENTER":103.6628,"MEAN_ANOMALY":256.473,"EPHEMERIS_TYPE":0,"NORAD_CAT_ID":62331,"ELEMENT_SET_NO":999,"REV_AT_EPOCH":7682,"BSTAR":0.0000060792,"MEAN_MOTION_DOT":1.7e-7,"MEAN_MOTION_DDOT":0},{"OBJECT_NAME":"HULIANWANG DIGUI-10","OBJECT_ID":"2024-240K","EPOCH":"2026-07-18T19:39:41.549760","CLASSIFICATION_TYPE":"U","MEAN_MOTION":13.2441086,"ECCENTRICITY":0.0002107,"INCLINATION":86.5055,"RA_OF_ASC_NODE":332.7539,"ARG_OF_PERICENTER":105.7599,"MEAN_ANOMALY":254.3767,"EPHEMERIS_TYPE":0,"NORAD_CAT_ID":62332,"ELEMENT_SET_NO":999,"REV_AT_EPOCH":7682,"BSTAR":0.0000032353,"MEAN_MOTION_DOT":1.6e-7,"MEAN_MOTION_DDOT":0},{"OBJECT_NAME":"HULIANWANG DIGUI-11","OBJECT_ID":"2025-030A","EPOCH":"2026-07-18T19:27:32.470272","CLASSIFICATION_TYPE":"U","MEAN_MOTION":13.29324601,"ECCENTRICITY":0.0000933,"INCLINATION":50.0003,"RA_OF_ASC_NODE":122.3953,"ARG_OF_PERICENTER":284.2055,"MEAN_ANOMALY":75.8714,"EPHEMERIS_TYPE":0,"NORAD_CAT_ID":62971,"ELEMENT_SET_NO":999,"REV_AT_EPOCH":7006,"BSTAR":0.000053412,"MEAN_MOTION_DOT":-9.9e-7,"MEAN_MOTION_DDOT":0}]}
